CUPID                   
1 49264U 21088E   26068.66993977  .00009454  00000+0  38662-3 0  9991
2 49264  97.3985 131.0756 0013746  59.9938 300.2662 15.24473777245013
STARLINK-30987          
1 58487U 23186Q   26068.03122254 -.00000363  00000+0 -36555-5 0  9995
2 58487  43.0024  67.5170 0001844 288.8768  71.1883 15.27575940125783
